0 COSMOS 2481
1 38733U 12041A   13282.46335275  .00000010  00000-0  00000+0 0  2727
2 38733 082.4686 083.9214 0019381 086.1504 274.1795 12.42348070 54435
0 COSMOS 2481
1 38733U 12041A   13282.54388460  .00000010  00000-0  00000+0 0  2731
2 38733 082.4685 083.8711 0019388 085.9903 274.3395 12.42348085 54447
0 COSMOS 2481
1 38733U 12041A   13282.94654418  .00000010  00000-0  00000+0 0  2745
2 38733 082.4682 083.6197 0019385 085.0241 275.3053 12.42348095 54491
0 COSMOS 2481
1 38733U 12041A   13283.42973564  .00000010  00000-0  00000+0 0  2756
2 38733 082.4682 083.3183 0019365 084.0416 276.2874 12.42348117 54557
0 COSMOS 2481
1 38733U 12041A   13283.59079938  .00000010  00000-0  00000+0 0  2756
2 38733 082.4690 083.2179 0019384 083.6965 276.6318 12.42348125 54573
0 COSMOS 2481
1 38733U 12041A   13284.15452289  .00000010  00000-0  00000+0 0  2764
2 38733 082.4684 082.8666 0019366 082.4596 277.8681 12.42348108 54644
0 COSMOS 2481
1 38733U 12041A   13284.39611866  .00000010  00000-0  00000+0 0  2779
2 38733 082.4685 082.7159 0019365 081.8826 278.4452 12.42348122 54671
0 COSMOS 2481
1 38733U 12041A   13285.76516126  .00000010  00000-0  00000+0 0  2819
2 38733 082.4687 081.8617 0019372 078.9658 281.3599 12.42348118 54849
0 COSMOS 2481
1 38733U 12041A   13286.00675698  .00000010  00000-0  00000+0 0  2828
2 38733 082.4688 081.7112 0019385 078.5182 281.8078 12.42348134 54879
0 COSMOS 2481
1 38733U 12041A   13286.40941639  .00000010  00000-0  00000+0 0  2834
2 38733 082.4693 081.4597 0019412 077.6926 282.6329 12.42348171 54921
0 COSMOS 2481
1 38733U 12041A   13286.81207590  .00000010  00000-0  00000+0 0  2841
2 38733 082.4687 081.2089 0019402 076.8584 283.4657 12.42348122 54972
0 COSMOS 2481
1 38733U 12041A   13287.05367165  .00000010  00000-0  00000+0 0  2854
2 38733 082.4688 081.0580 0019411 076.3704 283.9540 12.42348148 55005
0 COSMOS 2481
1 38733U 12041A   13287.37579915  .00000010  00000-0  00000+0 0  2868
2 38733 082.4689 080.8571 0019408 075.6446 284.6788 12.42348153 55046
0 COSMOS 2481
1 38733U 12041A   13287.77845859  .00000010  00000-0  00000+0 0  2876
2 38733 082.4689 080.6057 0019407 074.8503 285.4719 12.42348145 55096
0 COSMOS 2481
1 38733U 12041A   13287.93952242  .00000010  00000-0  00000+0 0  2880
2 38733 082.4685 080.5048 0019402 074.4405 285.8815 12.42348138 55119
0 COSMOS 2481
1 38733U 12041A   13288.50324572  .00000010  00000-0  00000+0 0  2894
2 38733 082.4688 080.1530 0019397 073.1632 287.1581 12.42348158 55189
0 COSMOS 2481
1 38733U 12041A   13288.66430932  .00000010  00000-0  00000+0 0  2901
2 38733 082.4686 080.0527 0019380 072.8347 287.4854 12.42348147 55200
0 COSMOS 2481
1 38733U 12041A   13288.98643683  .00000010  00000-0  00000+0 0  2916
2 38733 082.4687 079.8515 0019401 072.1095 288.2102 12.42348163 55248
0 COSMOS 2481
1 38733U 12041A   13289.46962797  .00000010  00000-0  00000+0 0  2921
2 38733 082.4689 079.5500 0019346 071.2855 289.0333 12.42348207 55304
0 COSMOS 2481
1 38733U 12041A   13289.71122336  .00000010  00000-0  00000+0 0  2937
2 38733 082.4688 079.3993 0019361 070.7391 289.5786 12.42348241 55331
0 COSMOS 2481
1 38733U 12041A   13290.11388266  .00000010  00000-0  00000+0 0  2940
2 38733 082.4690 079.1485 0019380 069.9437 290.3733 12.42348272 55381
0 COSMOS 2481
1 38733U 12041A   13290.35547815  .00000010  00000-0  00000+0 0  2954
2 38733 082.4690 078.9977 0019378 069.4658 290.8503 12.42348280 55414
0 COSMOS 2481
1 38733U 12041A   13290.75813733  .00000010  00000-0  00000+0 0  2964
2 38733 082.4687 078.7465 0019384 068.7247 291.5902 12.42348296 55466
0 COSMOS 2481
1 38733U 12041A   13290.99973290  .00000010  00000-0  00000+0 0  2976
2 38733 082.4687 078.5957 0019384 068.2028 292.1114 12.42348305 55498
0 COSMOS 2481
1 38733U 12041A   13291.48292408  .00000010  00000-0  00000+0 0  2987
2 38733 082.4690 078.2941 0019365 067.1610 293.1522 12.42348344 55550
0 COSMOS 2481
1 38733U 12041A   13291.88558319  .00000010  00000-0  00000+0 0  2998
2 38733 082.4688 078.0429 0019358 066.2836 294.0273 12.42348335 55607
0 COSMOS 2481
1 38733U 12041A   13292.04664688  .00000010  00000-0  00000+0 0  3007
2 38733 082.4689 077.9425 0019343 066.0178 294.2934 12.42348370 55620
0 COSMOS 2481
1 38733U 12041A   13292.44930589  .00000010  00000-0  00000+0 0  3018
2 38733 082.4690 077.6915 0019346 065.2240 295.0853 12.42348406 55671
0 COSMOS 2481
1 38733U 12041A   13292.69090138  .00000010  00000-0  00000+0 0  3023
2 38733 082.4692 077.5409 0019328 064.7055 295.6029 12.42348417 55705
0 COSMOS 2481
1 38733U 12041A   13293.01302861  .00000010  00000-0  00000+0 0  3030
2 38733 082.4694 077.3401 0019324 063.9354 296.3712 12.42348433 55745
0 COSMOS 2481
1 38733U 12041A   13293.49621960  .00000010  00000-0  00000+0 0  3047
2 38733 082.4697 077.0384 0019349 062.8239 297.4809 12.42348489 55809
0 COSMOS 2481
1 38733U 12041A   13293.73781514  .00000010  00000-0  00000+0 0  3057
2 38733 082.4700 076.8877 0019355 062.3112 297.9922 12.42348472 55836
0 COSMOS 2481
1 38733U 12041A   13293.89887897  .00000010  00000-0  00000+0 0  3066
2 38733 082.4699 076.7873 0019382 062.2047 298.0997 12.42348481 55850
0 COSMOS 2481
1 38733U 12041A   13294.46260162  .00000010  00000-0  00000+0 0  3071
2 38733 082.4700 076.4355 0019341 060.8824 299.4191 12.42348528 55928
0 COSMOS 2481
1 38733U 12041A   13294.86526070  .00000010  00000-0  00000+0 0  3089
2 38733 082.4700 076.1843 0019342 060.0597 300.2400 12.42348545 55975
0 COSMOS 2481
1 38733U 12041A   13295.02632437  .00000010  00000-0  00000+0 0  3094
2 38733 082.4700 076.0840 0019337 059.7373 300.5618 12.42348547 55990
0 COSMOS 2481
1 38733U 12041A   13295.50951535  .00000010  00000-0  00000+0 0  3102
2 38733 082.4702 075.7827 0019289 058.8191 301.4795 12.42348606 56057
0 COSMOS 2481
1 38733U 12041A   13295.67057859  .00000010  00000-0  00000+0 0  3117
2 38733 082.4701 075.6821 0019277 058.5459 301.7502 12.42348595 56078
0 COSMOS 2481
1 38733U 12041A   13296.07323767  .00000010  00000-0  00000+0 0  3127
2 38733 082.4701 075.4310 0019284 057.5890 302.7050 12.42348605 56122
